start=new Date('2021-10-30T00:00:00.000Z').valueOf();
sats=[{"OBJECT_ID":"2021-024AW","LAUNCH_DATE":"2021-03-24","MEAN_ANOMALY":"293.4165","MEAN_MOTION":"15.06391059","OBJECT_TYPE":"PAYLOAD","GP_ID":"188467622","PERIAPSIS":"545.668","MEAN_MOTION_DDOT":"0.0000000000000","TIME_SYSTEM":"UTC","FILE":"3191844","MEAN_ELEMENT_THEORY":"SGP4","OBJECT_NAME":"STARLINK-2301","ECCENTRICITY":"0.00022720","INCLINATION":"53.0543","APOAPSIS":"548.814","BSTAR":"0.00002378000000","PERIOD":"95.593","DECAY_DATE":null,"REF_FRAME":"TEME","NORAD_CAT_ID":"48021","CENTER_NAME":"EARTH","RCS_SIZE":"LARGE","EPHEMERIS_TYPE":"0","SITE":"AFETR","TLE_LINE2":"2 48021  53.0543 217.6712 0002272  66.7063 293.4165 15.06391059 35494","MEAN_MOTION_DOT":"0.00000072","ARG_OF_PERICENTER":"66.7063","TLE_LINE1":"1 48021U 21024AW  21302.84497665  .00000072  00000-0  23780-4 0  9994","COUNTRY_CODE":"US","CLASSIFICATION_TYPE":"U","EPOCH":"2021-10-29T20:16:45.982560","REV_AT_EPOCH":"3549","SEMIMAJOR_AXIS":"6925.376","ELEMENT_SET_NO":"999","RA_OF_ASC_NODE":"217.6712"},{"RA_OF_ASC_NODE":"278.5816","SEMIMAJOR_AXIS":"6925.358","ELEMENT_SET_NO":"999","REV_AT_EPOCH":"3467","CLASSIFICATION_TYPE":"U","EPOCH":"2021-10-29T15:31:26.765184","COUNTRY_CODE":"US","TLE_LINE1":"1 48022U 21024AX  21302.64683756 -.00000884  00000-0 -40452-4 0  9999","MEAN_MOTION_DOT":"-0.00000884","ARG_OF_PERICENTER":"72.4210","TLE_LINE2":"2 48022  53.0544 278.5816 0001518  72.4210 287.6945 15.06396829 34677","SITE":"AFETR","EPHEMERIS_TYPE":"0","RCS_SIZE":"LARGE","CENTER_NAME":"EARTH","NORAD_CAT_ID":"48022","REF_FRAME":"TEME","DECAY_DATE":null,"PERIOD":"95.592","BSTAR":"-0.00004045200000","APOAPSIS":"548.275","INCLINATION":"53.0544","OBJECT_NAME":"STARLINK-2298","ECCENTRICITY":"0.00015180","MEAN_ELEMENT_THEORY":"SGP4","FILE":"3191844","TIME_SYSTEM":"UTC","MEAN_MOTION_DDOT":"0.0000000000000","PERIAPSIS":"546.172","GP_ID":"188468377","OBJECT_TYPE":"PAYLOAD","MEAN_MOTION":"15.06396829","OBJECT_ID":"2021-024AX","LAUNCH_DATE":"2021-03-24","MEAN_ANOMALY":"287.6945"},{"TIME_SYSTEM":"UTC","MEAN_MOTION_DDOT":"0.0000000000000","MEAN_ELEMENT_THEORY":"SGP4","FILE":"3191844","OBJECT_NAME":"STARLINK-2292","ECCENTRICITY":"0.00015290","APOAPSIS":"548.233","INCLINATION":"53.0551","LAUNCH_DATE":"2021-03-24","MEAN_ANOMALY":"290.7538","OBJECT_ID":"2021-024AY","OBJECT_TYPE":"PAYLOAD","GP_ID":"188468622","PERIAPSIS":"546.115","MEAN_MOTION":"15.06412803","TLE_LINE2":"2 48023  53.0551 279.3891 0001529  69.3614 290.7538 15.06412803 34644","SITE":"AFETR","EPHEMERIS_TYPE":"0","COUNTRY_CODE":"US","TLE_LINE1":"1 48023U 21024AY  21302.46347918  .00001880  00000-0  14501-3 0  9997","MEAN_MOTION_DOT":"0.00001880","ARG_OF_PERICENTER":"69.3614","CLASSIFICATION_TYPE":"U","EPOCH":"2021-10-29T11:07:24.601152","SEMIMAJOR_AXIS":"6925.309","ELEMENT_SET_NO":"999","REV_AT_EPOCH":"3464","RA_OF_ASC_NODE":"279.3891","BSTAR":"0.00014501000000","DECAY_DATE":null,"PERIOD":"95.591","REF_FRAME":"TEME","RCS_SIZE":"LARGE","NORAD_CAT_ID":"48023","CENTER_NAME":"EARTH"},{"APOAPSIS":"355.381","INCLINATION":"53.0422","OBJECT_NAME":"STARLINK-2302","ECCENTRICITY":"0.00080300","FILE":"3191844","MEAN_ELEMENT_THEORY":"SGP4","TIME_SYSTEM":"UTC","MEAN_MOTION_DDOT":"0.0000000000000","GP_ID":"188467376","PERIAPSIS":"344.576","OBJECT_TYPE":"PAYLOAD","MEAN_MOTION":"15.73123327","OBJECT_ID":"2021-024AZ","LAUNCH_DATE":"2021-03-24","MEAN_ANOMALY":"357.2823","RA_OF_ASC_NODE":"192.6556","SEMIMAJOR_AXIS":"6728.114","REV_AT_EPOCH":"369","ELEMENT_SET_NO":"999","CLASSIFICATION_TYPE":"U","EPOCH":"2021-10-30T00:00:02.000160","TLE_LINE1":"1 48024U 21024AZ  21303.00002315  .00030046  00000-0  21807-3 0  9991","COUNTRY_CODE":"US","ARG_OF_PERICENTER":"293.5428","MEAN_MOTION_DOT":"0.00030046","TLE_LINE2":"2 48024  53.0422 192.6556 0008030 293.5428 357.2823 15.73123327  3696","SITE":"AFETR","EPHEMERIS_TYPE":"0","RCS_SIZE":"LARGE","CENTER_NAME":"EARTH","NORAD_CAT_ID":"48024","REF_FRAME":"TEME","DECAY_DATE":null,"PERIOD":"91.538","BSTAR":"0.00021807000000"},{"EPHEMERIS_TYPE":"0","SITE":"AFETR","TLE_LINE2":"2 48025  53.0419 192.6488 0002782  14.8102 276.5678 15.73216864  3698","MEAN_MOTION_DOT":"-0.00018965","ARG_OF_PERICENTER":"14.8102","COUNTRY_CODE":"US","TLE_LINE1":"1 48025U 21024BA  21303.00002315 -.00018965  00000-0 -13084-3 0  9998","SEMIMAJOR_AXIS":"6727.847","REV_AT_EPOCH":"369","ELEMENT_SET_NO":"999","CLASSIFICATION_TYPE":"U","EPOCH":"2021-10-30T00:00:02.000160","RA_OF_ASC_NODE":"192.6488","BSTAR":"-0.00013084000000","PERIOD":"91.532","DECAY_DATE":null,"REF_FRAME":"TEME","CENTER_NAME":"EARTH","NORAD_CAT_ID":"48025","RCS_SIZE":"LARGE","MEAN_MOTION_DDOT":"0.0000000000000","TIME_SYSTEM":"UTC","MEAN_ELEMENT_THEORY":"SGP4","FILE":"3191844","OBJECT_NAME":"STARLINK-2318","ECCENTRICITY":"0.00027820","INCLINATION":"53.0419","APOAPSIS":"351.584","MEAN_ANOMALY":"276.5678","LAUNCH_DATE":"2021-03-24","OBJECT_ID":"2021-024BA","MEAN_MOTION":"15.73216864","PERIAPSIS":"347.840","GP_ID":"188468122","OBJECT_TYPE":"PAYLOAD"},{"DECAY_DATE":null,"PERIOD":"95.593","BSTAR":"-0.00003119600000","RCS_SIZE":"LARGE","CENTER_NAME":"EARTH","NORAD_CAT_ID":"48026","REF_FRAME":"TEME","TLE_LINE1":"1 48026U 21024BB  21302.64178742 -.00000746  00000-0 -31196-4 0  9999","COUNTRY_CODE":"US","ARG_OF_PERICENTER":"76.7645","MEAN_MOTION_DOT":"-0.00000746","TLE_LINE2":"2 48026  53.0254 283.7366 0001547  76.7645 283.3516 15.06390831 34548","SITE":"AFETR","EPHEMERIS_TYPE":"0","RA_OF_ASC_NODE":"283.7366","ELEMENT_SET_NO":"999","SEMIMAJOR_AXIS":"6925.377","REV_AT_EPOCH":"3454","EPOCH":"2021-10-29T15:24:10.433088","CLASSIFICATION_TYPE":"U","PERIAPSIS":"546.170","GP_ID":"188468877","OBJECT_TYPE":"PAYLOAD","MEAN_MOTION":"15.06390831","OBJECT_ID":"2021-024BB","LAUNCH_DATE":"2021-03-24","MEAN_ANOMALY":"283.3516","MEAN_ELEMENT_THEORY":"SGP4","FILE":"3191844","TIME_SYSTEM":"UTC","MEAN_MOTION_DDOT":"0.0000000000000","APOAPSIS":"548.313","INCLINATION":"53.0254","ECCENTRICITY":"0.00015470","OBJECT_NAME":"STARLINK-2278"},{"TLE_LINE1":"1 48027U 21024BC  21302.86708400  .00002657  00000-0  19717-3 0  9999","COUNTRY_CODE":"US","MEAN_MOTION_DOT":"0.00002657","ARG_OF_PERICENTER":"70.2317","TLE_LINE2":"2 48027  53.0554 257.5823 0001703  70.2317 289.8856 15.06403144 34920","SITE":"AFETR","EPHEMERIS_TYPE":"0","RA_OF_ASC_NODE":"257.5823","EPOCH":"2021-10-29T20:48:36.057600","CLASSIFICATION_TYPE":"U","SEMIMAJOR_AXIS":"6925.339","ELEMENT_SET_NO":"999","REV_AT_EPOCH":"3492","DECAY_DATE":null,"PERIOD":"95.592","BSTAR":"0.00019717000000","RCS_SIZE":"LARGE","NORAD_CAT_ID":"48027","CENTER_NAME":"EARTH","REF_FRAME":"TEME","FILE":"3191844","MEAN_ELEMENT_THEORY":"SGP4","TIME_SYSTEM":"UTC","MEAN_MOTION_DDOT":"0.0000000000000","APOAPSIS":"548.383","INCLINATION":"53.0554","OBJECT_NAME":"STARLINK-2300","ECCENTRICITY":"0.00017030","OBJECT_TYPE":"PAYLOAD","GP_ID":"188469122","PERIAPSIS":"546.025","MEAN_MOTION":"15.06403144","MEAN_ANOMALY":"289.8856","LAUNCH_DATE":"2021-03-24","OBJECT_ID":"2021-024BC"},{"SITE":"AFETR","EPHEMERIS_TYPE":"0","TLE_LINE2":"2 48028  53.0542 211.9773 0002773  61.9629 232.0886 15.06388985  3583","MEAN_MOTION_DOT":"-0.00020027","ARG_OF_PERICENTER":"61.9629","COUNTRY_CODE":"US","TLE_LINE1":"1 48028U 21024BD  21303.00002315 -.00020027  00000-0 -13296-2 0  9997","SEMIMAJOR_AXIS":"6925.382","ELEMENT_SET_NO":"999","REV_AT_EPOCH":"358","EPOCH":"2021-10-30T00:00:02.000160","CLASSIFICATION_TYPE":"U","RA_OF_ASC_NODE":"211.9773","BSTAR":"-0.00132960000000","PERIOD":"95.593","DECAY_DATE":null,"REF_FRAME":"TEME","CENTER_NAME":"EARTH","NORAD_CAT_ID":"48028","RCS_SIZE":"LARGE","MEAN_MOTION_DDOT":"0.0000000000000","TIME_SYSTEM":"UTC","FILE":"3191844","MEAN_ELEMENT_THEORY":"SGP4","OBJECT_NAME":"STARLINK-2264","ECCENTRICITY":"0.00027730","INCLINATION":"53.0542","APOAPSIS":"549.168","OBJECT_ID":"2021-024BD","LAUNCH_DATE":"2021-03-24","MEAN_ANOMALY":"232.0886","MEAN_MOTION":"15.06388985","PERIAPSIS":"545.327","GP_ID":"188467876","OBJECT_TYPE":"PAYLOAD"},{"TLE_LINE1":"1 48029U 21024BE  21302.90579731  .00001600  00000-0  12628-3 0  9990","COUNTRY_CODE":"US","MEAN_MOTION_DOT":"0.00001600","ARG_OF_PERICENTER":"74.6672","TLE_LINE2":"2 48029  53.0563 277.4209 0001568  74.6672 285.4490 15.06402258 34710","SITE":"AFETR","EPHEMERIS_TYPE":"0","RA_OF_ASC_NODE":"277.4209","SEMIMAJOR_AXIS":"6925.342","REV_AT_EPOCH":"3471","ELEMENT_SET_NO":"999","EPOCH":"2021-10-29T21:44:20.887584","CLASSIFICATION_TYPE":"U","DECAY_DATE":null,"PERIOD":"95.592","BSTAR":"0.00012628000000","RCS_SIZE":"LARGE","CENTER_NAME":"EARTH","NORAD_CAT_ID":"48029","REF_FRAME":"TEME","MEAN_ELEMENT_THEORY":"SGP4","FILE":"3191844","TIME_SYSTEM":"UTC","MEAN_MOTION_DDOT":"0.0000000000000","APOAPSIS":"548.293","INCLINATION":"53.0563","OBJECT_NAME":"STARLINK-2299","ECCENTRICITY":"0.00015680","GP_ID":"188467623","PERIAPSIS":"546.121","OBJECT_TYPE":"PAYLOAD","MEAN_MOTION":"15.06402258","LAUNCH_DATE":"2021-03-24","OBJECT_ID":"2021-024BE","MEAN_ANOMALY":"285.4490"},{"OBJECT_ID":"2021-024BF","LAUNCH_DATE":"2021-03-24","MEAN_ANOMALY":"289.2379","MEAN_MOTION":"15.06391538","OBJECT_TYPE":"PAYLOAD","PERIAPSIS":"546.200","GP_ID":"188468378","ECCENTRICITY":"0.00015010","OBJECT_NAME":"STARLINK-2268","INCLINATION":"53.0546","APOAPSIS":"548.279","MEAN_MOTION_DDOT":"0.0000000000000","TIME_SYSTEM":"UTC","MEAN_ELEMENT_THEORY":"SGP4","FILE":"3191844","REF_FRAME":"TEME","NORAD_CAT_ID":"48030","CENTER_NAME":"EARTH","RCS_SIZE":"LARGE","BSTAR":"0.00005909400000","PERIOD":"95.593","DECAY_DATE":null,"CLASSIFICATION_TYPE":"U","EPOCH":"2021-10-29T11:14:43.398240","ELEMENT_SET_NO":"999","SEMIMAJOR_AXIS":"6925.374","REV_AT_EPOCH":"3451","RA_OF_ASC_NODE":"284.3632","SITE":"AFETR","EPHEMERIS_TYPE":"0","TLE_LINE2":"2 48030  53.0546 284.3632 0001501  70.8773 289.2379 15.06391538 34511","MEAN_MOTION_DOT":"0.00000599","ARG_OF_PERICENTER":"70.8773","TLE_LINE1":"1 48030U 21024BF  21302.46855785  .00000599  00000-0  59094-4 0  9994","COUNTRY_CODE":"US"}];
